[{"OBJECT_NAME":"GLOBALSTAR M073","OBJECT_ID":"2010-054F","EPOCH":"2026-03-09T23:43:39.055872","MEAN_MOTION":12.62269826,"ECCENTRICITY":5.635e-5,"INCLINATION":52.0093,"RA_OF_ASC_NODE":6.2531,"ARG_OF_PERICENTER":96.9542,"MEAN_ANOMALY":341.8173,"EPHEMERIS_TYPE":0,"CLASSIFICATION_TYPE":"U","NORAD_CAT_ID":37193,"ELEMENT_SET_NO":999,"REV_AT_EPOCH":71140,"BSTAR":6.5674016e-5,"MEAN_MOTION_DOT":-9.2e-7,"MEAN_MOTION_DDOT":0},{"OBJECT_NAME":"COSMOS 1801","OBJECT_ID":"1986-092H","EPOCH":"2026-03-09T14:28:48.258048","MEAN_MOTION":12.58852129,"ECCENTRICITY":0.0054319,"INCLINATION":74.0127,"RA_OF_ASC_NODE":131.3744,"ARG_OF_PERICENTER":157.3242,"MEAN_ANOMALY":275.2173,"EPHEMERIS_TYPE":0,"CLASSIFICATION_TYPE":"U","NORAD_CAT_ID":17145,"ELEMENT_SET_NO":999,"REV_AT_EPOCH":80590,"BSTAR":5.2962e-5,"MEAN_MOTION_DOT":-7.0e-8,"MEAN_MOTION_DDOT":0}]
